*******************************************************************************
Ephemeris / WWW_USER Mon Mar 10 06:45:20 2025 Pasadena, USA      / Horizons    
*******************************************************************************
Target body name: (2018 TG6)                      {source: JPL#30}
Center body name: Earth (399)                     {source: DE441}
Center-site name: Mauna Kea
*******************************************************************************
Start time      : A.D. 2018-Sep-03 04:45:00.0000 UT      
Stop  time      : A.D. 2018-Sep-03 15:57:00.0000 UT      
Step-size       : 1 minutes
*******************************************************************************
Target pole/equ : undefined
Target radii    : undefined                                                    
Center geodetic : 204.5278, 19.8260847, 4.21024   {E-lon(deg),Lat(deg),Alt(km)}
Center cylindric: 204.5278, 6006.35451, 2151.0229 {E-lon(deg),Dxy(km),Dz(km)}
Center pole/equ : ITRF93                          {East-longitude positive}
Center radii    : 6378.137, 6378.137, 6356.752 km {Equator_a, b, pole_c}       
Target primary  : Sun
Vis. interferer : MOON (R_eq= 1737.400) km        {source: DE441}
Rel. light bend : Sun                             {source: DE441}
Rel. lght bnd GM: 1.3271E+11 km^3/s^2                                          
Small-body perts: Yes                             {source: SB441-N16}
Atmos refraction: NO (AIRLESS)
RA format       : HMS
Time format     : CAL 
Calendar mode   : Mixed Julian/Gregorian
RTS-only print  : NO       
EOP file        : eop.250307.p250603                                           
EOP coverage    : DATA-BASED 1962-JAN-20 TO 2025-MAR-07. PREDICTS-> 2025-JUN-02
Units conversion: 1 au= 149597870.700 km, c= 299792.458 km/s, 1 day= 86400.0 s 
Table cut-offs 1: Elevation (-90.0deg=NO ),Airmass (>38.000=NO), Daylight (YES)
Table cut-offs 2: Solar elongation (  0.0,180.0=NO ),Local Hour Angle( 0.0=NO )
Table cut-offs 3: RA/DEC angular rate (     0.0=NO )                           
*******************************************************************************
Initial IAU76/J2000 heliocentric ecliptic osculating elements (au, days, deg.):
  EPOCH=  2458431.5 ! 2018-Nov-09.00 (TDB)         Residual RMS= .2345         
   EC= .08078462401503236  QR= .9719826736009184   TP= 2458484.4320189627      
   OM= 45.37159736002829   W=  55.46172815883946   IN= 1.097814612439332       
  Equivalent ICRF heliocentric cartesian coordinates (au, au/d):
   X= 7.039692724255667E-01  Y= 6.572194580492579E-01  Z= 2.849862807208282E-01
  VX=-1.330010453008250E-02 VY= 1.042346427712734E-02 VZ= 4.885657766154543E-03
Asteroid physical parameters (km, seconds, rotational period in hours):        
   GM= n.a.                RAD= n.a.               ROTPER= n.a.                
   H= 27.25                G= .150                 B-V= n.a.                   
                           ALBEDO= n.a.            STYP= n.a.                  
*******************************************************************************
 Date__(UT)__HR:MN     R.A._________(ICRF)_________DEC
******************************************************
$$SOE
 2018-Sep-03 04:45 C   01 29 32.695309 -01 40 17.99655
 2018-Sep-03 04:46 C   01 29 32.755859 -01 40 18.02822
 2018-Sep-03 04:47 C   01 29 32.816322 -01 40 18.05993
 2018-Sep-03 04:48 C   01 29 32.876699 -01 40 18.09167
 2018-Sep-03 04:49 C   01 29 32.936989 -01 40 18.12344
 2018-Sep-03 04:50 C   01 29 32.997192 -01 40 18.15524
 2018-Sep-03 04:51 C   01 29 33.057308 -01 40 18.18708
 2018-Sep-03 04:52 C   01 29 33.117336 -01 40 18.21894
 2018-Sep-03 04:53 C   01 29 33.177276 -01 40 18.25084
 2018-Sep-03 04:54 C   01 29 33.237128 -01 40 18.28277
 2018-Sep-03 04:55 C   01 29 33.296892 -01 40 18.31474
 2018-Sep-03 04:56 C   01 29 33.356567 -01 40 18.34673
 2018-Sep-03 04:57 C   01 29 33.416154 -01 40 18.37876
 2018-Sep-03 04:58 C   01 29 33.475651 -01 40 18.41081
 2018-Sep-03 04:59 N   01 29 33.535059 -01 40 18.44290
 2018-Sep-03 05:00 N   01 29 33.594378 -01 40 18.47502
 2018-Sep-03 05:01 N   01 29 33.653607 -01 40 18.50717
 2018-Sep-03 05:02 N   01 29 33.712746 -01 40 18.53935
 2018-Sep-03 05:03 N   01 29 33.771795 -01 40 18.57156
 2018-Sep-03 05:04 N   01 29 33.830753 -01 40 18.60380
 2018-Sep-03 05:05 N   01 29 33.889620 -01 40 18.63607
 2018-Sep-03 05:06 N   01 29 33.948397 -01 40 18.66837
 2018-Sep-03 05:07 N   01 29 34.007082 -01 40 18.70070
 2018-Sep-03 05:08 N   01 29 34.065676 -01 40 18.73306
 2018-Sep-03 05:09 N   01 29 34.124179 -01 40 18.76545
 2018-Sep-03 05:10 N   01 29 34.182589 -01 40 18.79787
 2018-Sep-03 05:11 N   01 29 34.240908 -01 40 18.83032
 2018-Sep-03 05:12 N   01 29 34.299134 -01 40 18.86279
 2018-Sep-03 05:13 N   01 29 34.357268 -01 40 18.89530
 2018-Sep-03 05:14 N   01 29 34.415310 -01 40 18.92783
 2018-Sep-03 05:15 N   01 29 34.473258 -01 40 18.96040
 2018-Sep-03 05:16 N   01 29 34.531113 -01 40 18.99299
 2018-Sep-03 05:17 N   01 29 34.588875 -01 40 19.02560
 2018-Sep-03 05:18 N   01 29 34.646544 -01 40 19.05825
 2018-Sep-03 05:19 N   01 29 34.704118 -01 40 19.09093
 2018-Sep-03 05:20 N   01 29 34.761599 -01 40 19.12363
 2018-Sep-03 05:21 N   01 29 34.818986 -01 40 19.15636
 2018-Sep-03 05:22 N   01 29 34.876278 -01 40 19.18911
 2018-Sep-03 05:23 N   01 29 34.933476 -01 40 19.22190
 2018-Sep-03 05:24 N   01 29 34.990579 -01 40 19.25471
 2018-Sep-03 05:25 A   01 29 35.047587 -01 40 19.28755
 2018-Sep-03 05:26 A   01 29 35.104500 -01 40 19.32041
 2018-Sep-03 05:27 A   01 29 35.161317 -01 40 19.35330
 2018-Sep-03 05:28 A   01 29 35.218039 -01 40 19.38622
 2018-Sep-03 05:29 A   01 29 35.274666 -01 40 19.41916
 2018-Sep-03 05:30 A   01 29 35.331196 -01 40 19.45213
 2018-Sep-03 05:31 A   01 29 35.387631 -01 40 19.48513
 2018-Sep-03 05:32 A   01 29 35.443969 -01 40 19.51815
 2018-Sep-03 05:33 A   01 29 35.500211 -01 40 19.55120
 2018-Sep-03 05:34 A   01 29 35.556356 -01 40 19.58427
 2018-Sep-03 05:35 A   01 29 35.612405 -01 40 19.61737
 2018-Sep-03 05:36 A   01 29 35.668356 -01 40 19.65049
 2018-Sep-03 05:37 A   01 29 35.724211 -01 40 19.68363
 2018-Sep-03 05:38 A   01 29 35.779968 -01 40 19.71680
 2018-Sep-03 05:39 A   01 29 35.835627 -01 40 19.75000
 2018-Sep-03 05:40 A   01 29 35.891189 -01 40 19.78322
 2018-Sep-03 05:41 A   01 29 35.946654 -01 40 19.81646
 2018-Sep-03 05:42 A   01 29 36.002020 -01 40 19.84973
 2018-Sep-03 05:43 A   01 29 36.057288 -01 40 19.88302
 2018-Sep-03 05:44 A   01 29 36.112458 -01 40 19.91634
 2018-Sep-03 05:45 A   01 29 36.167529 -01 40 19.94968
 2018-Sep-03 05:46 A   01 29 36.222502 -01 40 19.98304
 2018-Sep-03 05:47 A   01 29 36.277376 -01 40 20.01643
 2018-Sep-03 05:48 A   01 29 36.332151 -01 40 20.04983
 2018-Sep-03 05:49 A   01 29 36.386827 -01 40 20.08326
 2018-Sep-03 05:50 A   01 29 36.441404 -01 40 20.11672
 2018-Sep-03 05:51     01 29 36.495881 -01 40 20.15019
 2018-Sep-03 05:52     01 29 36.550259 -01 40 20.18369
 2018-Sep-03 05:53     01 29 36.604537 -01 40 20.21721
 2018-Sep-03 05:54     01 29 36.658716 -01 40 20.25075
 2018-Sep-03 05:55     01 29 36.712794 -01 40 20.28432
 2018-Sep-03 05:56     01 29 36.766773 -01 40 20.31790
 2018-Sep-03 05:57     01 29 36.820651 -01 40 20.35151
 2018-Sep-03 05:58     01 29 36.874429 -01 40 20.38514
 2018-Sep-03 05:59     01 29 36.928106 -01 40 20.41878
 2018-Sep-03 06:00     01 29 36.981683 -01 40 20.45245
 2018-Sep-03 06:01     01 29 37.035159 -01 40 20.48614
 2018-Sep-03 06:02     01 29 37.088534 -01 40 20.51985
 2018-Sep-03 06:03     01 29 37.141809 -01 40 20.55358
 2018-Sep-03 06:04     01 29 37.194982 -01 40 20.58733
 2018-Sep-03 06:05     01 29 37.248054 -01 40 20.62111
 2018-Sep-03 06:06     01 29 37.301024 -01 40 20.65490
 2018-Sep-03 06:07     01 29 37.353893 -01 40 20.68871
 2018-Sep-03 06:08     01 29 37.406661 -01 40 20.72253
 2018-Sep-03 06:09     01 29 37.459326 -01 40 20.75638
 2018-Sep-03 06:10     01 29 37.511890 -01 40 20.79025
 2018-Sep-03 06:11     01 29 37.564352 -01 40 20.82414
 2018-Sep-03 06:12     01 29 37.616712 -01 40 20.85804
 2018-Sep-03 06:13     01 29 37.668970 -01 40 20.89196
 2018-Sep-03 06:14     01 29 37.721126 -01 40 20.92591
 2018-Sep-03 06:15     01 29 37.773179 -01 40 20.95987
 2018-Sep-03 06:16     01 29 37.825130 -01 40 20.99384
 2018-Sep-03 06:17     01 29 37.876978 -01 40 21.02784
 2018-Sep-03 06:18     01 29 37.928724 -01 40 21.06185
 2018-Sep-03 06:19     01 29 37.980367 -01 40 21.09588
 2018-Sep-03 06:20     01 29 38.031907 -01 40 21.12993
 2018-Sep-03 06:21     01 29 38.083344 -01 40 21.16399
 2018-Sep-03 06:22     01 29 38.134678 -01 40 21.19808
 2018-Sep-03 06:23     01 29 38.185910 -01 40 21.23217
 2018-Sep-03 06:24     01 29 38.237037 -01 40 21.26629
 2018-Sep-03 06:25     01 29 38.288062 -01 40 21.30042
 2018-Sep-03 06:26     01 29 38.338983 -01 40 21.33457
 2018-Sep-03 06:27     01 29 38.389801 -01 40 21.36873
 2018-Sep-03 06:28     01 29 38.440516 -01 40 21.40291
 2018-Sep-03 06:29     01 29 38.491127 -01 40 21.43710
 2018-Sep-03 06:30     01 29 38.541634 -01 40 21.47131
 2018-Sep-03 06:31     01 29 38.592037 -01 40 21.50554
 2018-Sep-03 06:32     01 29 38.642337 -01 40 21.53978
 2018-Sep-03 06:33     01 29 38.692533 -01 40 21.57403
 2018-Sep-03 06:34     01 29 38.742625 -01 40 21.60830
 2018-Sep-03 06:35     01 29 38.792613 -01 40 21.64258
 2018-Sep-03 06:36     01 29 38.842497 -01 40 21.67688
 2018-Sep-03 06:37     01 29 38.892277 -01 40 21.71120
 2018-Sep-03 06:38     01 29 38.941953 -01 40 21.74552
 2018-Sep-03 06:39     01 29 38.991524 -01 40 21.77986
 2018-Sep-03 06:40     01 29 39.040991 -01 40 21.81421
 2018-Sep-03 06:41     01 29 39.090354 -01 40 21.84858
 2018-Sep-03 06:42     01 29 39.139613 -01 40 21.88296
 2018-Sep-03 06:43     01 29 39.188767 -01 40 21.91735
 2018-Sep-03 06:44     01 29 39.237817 -01 40 21.95176
 2018-Sep-03 06:45     01 29 39.286762 -01 40 21.98618
 2018-Sep-03 06:46     01 29 39.335603 -01 40 22.02061
 2018-Sep-03 06:47     01 29 39.384339 -01 40 22.05505
